EXACTVIEW-1 (ADS-1B)    
1 38709U 12039C   26032.93311905  .00000157  00000+0  87084-4 0  9999
2 38709  98.9626 147.3971 0010673 196.3378 163.7458 14.24934765703442
SPOT 6                  
1 38755U 12047A   26032.98301903  .00000323  00000+0  79085-4 0  9998
2 38755  98.1496 101.8030 0001111  97.4773 262.6553 14.58605694713346
PLEIADES 1B             
1 39019U 12068A   26032.93417885  .00000309  00000+0  76238-4 0  9998
2 39019  98.2090 109.7815 0001304 104.8473 255.2871 14.58550254701139
GOKTURK 2               
1 39030U 12073A   26032.99058743  .00001057  00000+0  16270-3 0  9997
2 39030  97.6887 237.1243 0002040  75.3617 284.7819 14.75382902704572
LANDSAT 8               
1 39084U 13008A   26032.88369894  .00000400  00000+0  98916-4 0  9994
2 39084  98.1990 105.1827 0001294  94.0466 266.0880 14.57111513678191
SARAL                   
1 39086U 13009A   26032.91661961  .00000122  00000+0  60825-4 0  9990
2 39086  98.5525 221.1835 0001592   3.3057 356.8137 14.32779596676239
GAOFEN-1                
1 39150U 13018A   26032.93445667  .00000474  00000+0  75128-4 0  9999
2 39150  97.9254 107.6688 0016935 346.9555  13.1215 14.76541095688280
VNREDSAT 1              
1 39160U 13021B   26032.98455299  .00000615  00000+0  12328-3 0  9990
2 39160  97.9298  91.4463 0001392  97.4809 262.6553 14.65019013680490
ARIRANG-5 (KOMPSAT-5)   
1 39227U 13042A   26032.95464829  .00001954  00000+0  14399-3 0  9990
2 39227  97.6160 221.5347 0001414 220.4464 139.6657 15.04480928683522
SKYSAT-A                
1 39418U 13066C   26032.63887236  .00003319  00000+0  19548-3 0  9992
2 39418  97.4026  86.2941 0023199  64.9237 295.4398 15.12064337667999
DUBAISAT-2              
1 39419U 13066D   26032.98519666  .00004520  00000+0  28965-3 0  9998
2 39419  97.4487  26.8438 0012684 131.9014 228.3299 15.08951988665992
GPM-CORE                
1 39574U 14009C   26032.96328416  .00007757  00000+0  17071-3 0  9998
2 39574  64.9736  41.0811 0010168 249.0210 110.9843 15.44629230676926
SENTINEL-1A             
1 39634U 14016A   26033.00753154  .00000176  00000+0  46992-4 0  9993
2 39634  98.1806  42.4938 0001308  88.5065 271.6284 14.59201090630306
KAZEOSAT 1              
1 39731U 14024A   26032.92750847  .00000132  00000+0  53182-4 0  9997
2 39731  98.3361 108.6679 0001059  90.3046 269.8265 14.42062681619063
ALOS-2                  
1 39766U 14029A   26032.94111949 -.00000448  00000+0 -53104-4 0  9992
2 39766  97.9227 132.0524 0001419  97.0769 263.0604 14.79468434631583
KAZEOSAT 2              
1 40010U 14033A   26032.96238328  .00000537  00000+0  68389-4 0  9992
2 40010  97.5495 239.6318 0009899  51.1703 309.0395 14.85273199628880
HODOYOSHI-4             
1 40011U 14033B   26032.99891027  .00001825  00000+0  20494-3 0  9992
2 40011  97.5422 224.3659 0024659  36.2830 324.0053 14.87708469628700
