[{"OBJECT_NAME":"EXACTVIEW-1 (ADS-1B)","OBJECT_ID":"2012-039C","EPOCH":"2026-02-01T22:23:41.485920","MEAN_MOTION":14.24934765,"ECCENTRICITY":0.0010673,"INCLINATION":98.9626,"RA_OF_ASC_NODE":147.3971,"ARG_OF_PERICENTER":196.3378,"MEAN_ANOMALY":163.7458,"EPHEMERIS_TYPE":0,"CLASSIFICATION_TYPE":"U","NORAD_CAT_ID":38709,"ELEMENT_SET_NO":999,"REV_AT_EPOCH":70344,"BSTAR":8.7083647e-5,"MEAN_MOTION_DOT":1.57e-6,"MEAN_MOTION_DDOT":0},{"OBJECT_NAME":"SPOT 6","OBJECT_ID":"2012-047A","EPOCH":"2026-02-01T23:35:32.844192","MEAN_MOTION":14.58605694,"ECCENTRICITY":0.00011119,"INCLINATION":98.1496,"RA_OF_ASC_NODE":101.803,"ARG_OF_PERICENTER":97.4773,"MEAN_ANOMALY":262.6553,"EPHEMERIS_TYPE":0,"CLASSIFICATION_TYPE":"U","NORAD_CAT_ID":38755,"ELEMENT_SET_NO":999,"REV_AT_EPOCH":71334,"BSTAR":7.9084652e-5,"MEAN_MOTION_DOT":3.23e-6,"MEAN_MOTION_DDOT":0},{"OBJECT_NAME":"PLEIADES 1B","OBJECT_ID":"2012-068A","EPOCH":"2026-02-01T22:25:13.052640","MEAN_MOTION":14.58550254,"ECCENTRICITY":0.00013044,"INCLINATION":98.209,"RA_OF_ASC_NODE":109.7815,"ARG_OF_PERICENTER":104.8473,"MEAN_ANOMALY":255.2871,"EPHEMERIS_TYPE":0,"CLASSIFICATION_TYPE":"U","NORAD_CAT_ID":39019,"ELEMENT_SET_NO":999,"REV_AT_EPOCH":70113,"BSTAR":7.6237775e-5,"MEAN_MOTION_DOT":3.09e-6,"MEAN_MOTION_DDOT":0},{"OBJECT_NAME":"GOKTURK 2","OBJECT_ID":"2012-073A","EPOCH":"2026-02-01T23:46:26.753952","MEAN_MOTION":14.75382902,"ECCENTRICITY":0.00020402,"INCLINATION":97.6887,"RA_OF_ASC_NODE":237.1243,"ARG_OF_PERICENTER":75.3617,"MEAN_ANOMALY":284.7819,"EPHEMERIS_TYPE":0,"CLASSIFICATION_TYPE":"U","NORAD_CAT_ID":39030,"ELEMENT_SET_NO":999,"REV_AT_EPOCH":70457,"BSTAR":0.00016269568,"MEAN_MOTION_DOT":1.057e-5,"MEAN_MOTION_DDOT":0},{"OBJECT_NAME":"LANDSAT 8","OBJECT_ID":"2013-008A","EPOCH":"2026-02-01T21:12:31.588416","MEAN_MOTION":14.57111513,"ECCENTRICITY":0.00012946,"INCLINATION":98.199,"RA_OF_ASC_NODE":105.1827,"ARG_OF_PERICENTER":94.0466,"MEAN_ANOMALY":266.088,"EPHEMERIS_TYPE":0,"CLASSIFICATION_TYPE":"U","NORAD_CAT_ID":39084,"ELEMENT_SET_NO":999,"REV_AT_EPOCH":67819,"BSTAR":9.8916234e-5,"MEAN_MOTION_DOT":4.0e-6,"MEAN_MOTION_DDOT":0},{"OBJECT_NAME":"SARAL","OBJECT_ID":"2013-009A","EPOCH":"2026-02-01T21:59:55.934304","MEAN_MOTION":14.32779596,"ECCENTRICITY":0.00015925,"INCLINATION":98.5525,"RA_OF_ASC_NODE":221.1835,"ARG_OF_PERICENTER":3.3057,"MEAN_ANOMALY":356.8137,"EPHEMERIS_TYPE":0,"CLASSIFICATION_TYPE":"U","NORAD_CAT_ID":39086,"ELEMENT_SET_NO":999,"REV_AT_EPOCH":67623,"BSTAR":6.0824612e-5,"MEAN_MOTION_DOT":1.22e-6,"MEAN_MOTION_DDOT":0},{"OBJECT_NAME":"GAOFEN-1","OBJECT_ID":"2013-018A","EPOCH":"2026-02-01T22:25:37.056288","MEAN_MOTION":14.76541095,"ECCENTRICITY":0.00169353,"INCLINATION":97.9254,"RA_OF_ASC_NODE":107.6688,"ARG_OF_PERICENTER":346.9555,"MEAN_ANOMALY":13.1215,"EPHEMERIS_TYPE":0,"CLASSIFICATION_TYPE":"U","NORAD_CAT_ID":39150,"ELEMENT_SET_NO":999,"REV_AT_EPOCH":68828,"BSTAR":7.5127564e-5,"MEAN_MOTION_DOT":4.74e-6,"MEAN_MOTION_DDOT":0},{"OBJECT_NAME":"VNREDSAT 1","OBJECT_ID":"2013-021B","EPOCH":"2026-02-01T23:37:45.378336","MEAN_MOTION":14.65019013,"ECCENTRICITY":0.00013924,"INCLINATION":97.9298,"RA_OF_ASC_NODE":91.4463,"ARG_OF_PERICENTER":97.4809,"MEAN_ANOMALY":262.6553,"EPHEMERIS_TYPE":0,"CLASSIFICATION_TYPE":"U","NORAD_CAT_ID":39160,"ELEMENT_SET_NO":999,"REV_AT_EPOCH":68049,"BSTAR":0.00012327516,"MEAN_MOTION_DOT":6.15e-6,"MEAN_MOTION_DDOT":0},{"OBJECT_NAME":"ARIRANG-5 (KOMPSAT-5)","OBJECT_ID":"2013-042A","EPOCH":"2026-02-01T22:54:41.612256","MEAN_MOTION":15.04480928,"ECCENTRICITY":0.00014148,"INCLINATION":97.616,"RA_OF_ASC_NODE":221.5347,"ARG_OF_PERICENTER":220.4464,"MEAN_ANOMALY":139.6657,"EPHEMERIS_TYPE":0,"CLASSIFICATION_TYPE":"U","NORAD_CAT_ID":39227,"ELEMENT_SET_NO":999,"REV_AT_EPOCH":68352,"BSTAR":0.00014399076,"MEAN_MOTION_DOT":1.954e-5,"MEAN_MOTION_DDOT":0},{"OBJECT_NAME":"SKYSAT-A","OBJECT_ID":"2013-066C","EPOCH":"2026-02-01T15:19:58.571904","MEAN_MOTION":15.12064337,"ECCENTRICITY":0.0023199,"INCLINATION":97.4026,"RA_OF_ASC_NODE":86.2941,"ARG_OF_PERICENTER":64.9237,"MEAN_ANOMALY":295.4398,"EPHEMERIS_TYPE":0,"CLASSIFICATION_TYPE":"U","NORAD_CAT_ID":39418,"ELEMENT_SET_NO":999,"REV_AT_EPOCH":66799,"BSTAR":0.00019548312,"MEAN_MOTION_DOT":3.319e-5,"MEAN_MOTION_DDOT":0},{"OBJECT_NAME":"DUBAISAT-2","OBJECT_ID":"2013-066D","EPOCH":"2026-02-01T23:38:40.991424","MEAN_MOTION":15.08951988,"ECCENTRICITY":0.00126841,"INCLINATION":97.4487,"RA_OF_ASC_NODE":26.8438,"ARG_OF_PERICENTER":131.9014,"MEAN_ANOMALY":228.3299,"EPHEMERIS_TYPE":0,"CLASSIFICATION_TYPE":"U","NORAD_CAT_ID":39419,"ELEMENT_SET_NO":999,"REV_AT_EPOCH":66599,"BSTAR":0.00028965467,"MEAN_MOTION_DOT":4.52e-5,"MEAN_MOTION_DDOT":0},{"OBJECT_NAME":"GPM-CORE","OBJECT_ID":"2014-009C","EPOCH":"2026-02-01T23:07:07.751424","MEAN_MOTION":15.4462923,"ECCENTRICITY":0.00101689,"INCLINATION":64.9736,"RA_OF_ASC_NODE":41.0811,"ARG_OF_PERICENTER":249.021,"MEAN_ANOMALY":110.9843,"EPHEMERIS_TYPE":0,"CLASSIFICATION_TYPE":"U","NORAD_CAT_ID":39574,"ELEMENT_SET_NO":999,"REV_AT_EPOCH":67692,"BSTAR":0.000170713,"MEAN_MOTION_DOT":7.757e-5,"MEAN_MOTION_DDOT":0},{"OBJECT_NAME":"SENTINEL-1A","OBJECT_ID":"2014-016A","EPOCH":"2026-02-02T00:10:50.725056","MEAN_MOTION":14.5920109,"ECCENTRICITY":0.00013082,"INCLINATION":98.1806,"RA_OF_ASC_NODE":42.4938,"ARG_OF_PERICENTER":88.5065,"MEAN_ANOMALY":271.6284,"EPHEMERIS_TYPE":0,"CLASSIFICATION_TYPE":"U","NORAD_CAT_ID":39634,"ELEMENT_SET_NO":999,"REV_AT_EPOCH":63030,"BSTAR":4.6992266e-5,"MEAN_MOTION_DOT":1.76e-6,"MEAN_MOTION_DDOT":0},{"OBJECT_NAME":"KAZEOSAT 1","OBJECT_ID":"2014-024A","EPOCH":"2026-02-01T22:15:36.731808","MEAN_MOTION":14.42062681,"ECCENTRICITY":0.00010592,"INCLINATION":98.3361,"RA_OF_ASC_NODE":108.6679,"ARG_OF_PERICENTER":90.3046,"MEAN_ANOMALY":269.8265,"EPHEMERIS_TYPE":0,"CLASSIFICATION_TYPE":"U","NORAD_CAT_ID":39731,"ELEMENT_SET_NO":999,"REV_AT_EPOCH":61906,"BSTAR":5.31822e-5,"MEAN_MOTION_DOT":1.32e-6,"MEAN_MOTION_DDOT":0},{"OBJECT_NAME":"ALOS-2","OBJECT_ID":"2014-029A","EPOCH":"2026-02-01T22:35:12.723936","MEAN_MOTION":14.79468434,"ECCENTRICITY":0.00014197,"INCLINATION":97.9227,"RA_OF_ASC_NODE":132.0524,"ARG_OF_PERICENTER":97.0769,"MEAN_ANOMALY":263.0604,"EPHEMERIS_TYPE":0,"CLASSIFICATION_TYPE":"U","NORAD_CAT_ID":39766,"ELEMENT_SET_NO":999,"REV_AT_EPOCH":63158,"BSTAR":-5.3104065e-5,"MEAN_MOTION_DOT":-4.48e-6,"MEAN_MOTION_DDOT":0},{"OBJECT_NAME":"KAZEOSAT 2","OBJECT_ID":"2014-033A","EPOCH":"2026-02-01T23:05:49.915392","MEAN_MOTION":14.85273199,"ECCENTRICITY":0.00098998,"INCLINATION":97.5495,"RA_OF_ASC_NODE":239.6318,"ARG_OF_PERICENTER":51.1703,"MEAN_ANOMALY":309.0395,"EPHEMERIS_TYPE":0,"CLASSIFICATION_TYPE":"U","NORAD_CAT_ID":40010,"ELEMENT_SET_NO":999,"REV_AT_EPOCH":62888,"BSTAR":6.8388938e-5,"MEAN_MOTION_DOT":5.37e-6,"MEAN_MOTION_DDOT":0},{"OBJECT_NAME":"HODOYOSHI-4","OBJECT_ID":"2014-033B","EPOCH":"2026-02-01T23:58:25.847328","MEAN_MOTION":14.87708469,"ECCENTRICITY":0.00246599,"INCLINATION":97.5422,"RA_OF_ASC_NODE":224.3659,"ARG_OF_PERICENTER":36.283,"MEAN_ANOMALY":324.0053,"EPHEMERIS_TYPE":0,"CLASSIFICATION_TYPE":"U","NORAD_CAT_ID":40011,"ELEMENT_SET_NO":999,"REV_AT_EPOCH":62870,"BSTAR":0.00020494312,"MEAN_MOTION_DOT":1.825e-5,"MEAN_MOTION_DDOT":0}]
